{"type": "FeatureCollection", "features": [ {"type": "Feature", "properties": {"norad_id": 33619, "name": "FENGYUN 1C DEB", "group": "fengyun-1c-debris", "lat": 3.620212790630844, "lon": 60.56242840938387, "alt_km": 803.8396469021254, "timestamp": "2025-12-17T17:50:19.537557+00:00", "meta": {"OBJECT_NAME": "FENGYUN 1C DEB", "OBJECT_ID": "1999-025DDC", "EPOCH": "2025-12-14T22:03:37.629792", "MEAN_MOTION": 14.1751978, "ECCENTRICITY": 0.00506525, "INCLINATION": 98.862, "RA_OF_ASC_NODE": 58.3121, "ARG_OF_PERICENTER": 39.8653, "MEAN_ANOMALY": 320.6225, "EPHEMERIS_TYPE": 0, "CLASSIFICATION_TYPE": "U", "NORAD_CAT_ID": 33619, "ELEMENT_SET_NO": 999, "REV_AT_EPOCH": 63655, "BSTAR": 0.0011254205, "MEAN_MOTION_DOT": 2.269e-05, "MEAN_MOTION_DDOT": 0}, "tle": {"line1": "1 33619U 99025DDC 25348.91918553  .00002269  00000+0  11254-2 0  9993", "line2": "2 33619  98.8620  58.3121 0050652  39.8653 320.6225 14.17519780636557"}}, "geometry": {"type": "Point", "coordinates": [60.56242840938387, 3.620212790630844]}}, {"type": "Feature", "properties": {"norad_id": 33621, "name": "FENGYUN 1C DEB", "group": "fengyun-1c-debris", "lat": -50.56890939417506, "lon": -147.87688546107435, "alt_km": 653.100777878235, "timestamp": "2025-12-17T17:50:19.537567+00:00", "meta": {"OBJECT_NAME": "FENGYUN 1C DEB", "OBJECT_ID": "1999-025DDE", "EPOCH": "2025-12-10T20:17:14.702784", "MEAN_MOTION": 14.19482835, "ECCENTRICITY": 0.02846988, "INCLINATION": 98.1391, "RA_OF_ASC_NODE": 195.7496, "ARG_OF_PERICENTER": 300.0128, "MEAN_ANOMALY": 57.3079, "EPHEMERIS_TYPE": 0, "CLASSIFICATION_TYPE": "U", "NORAD_CAT_ID": 33621, "ELEMENT_SET_NO": 999, "REV_AT_EPOCH": 64217, "BSTAR": 0.00099524636, "MEAN_MOTION_DOT": 3.099e-05, "MEAN_MOTION_DDOT": 0}, "tle": {"line1": "1 33621U 99025DDE 25344.84530906  .00003099  00000+0  99525-3 0  9996", "line2": "2 33621  98.1391 195.7496 0284698 300.0128  57.3079 14.19482835642176"}}, "geometry": {"type": "Point", "coordinates": [-147.87688546107435, -50.56890939417506]}}, {"type": "Feature", "properties": {"norad_id": 33625, "name": "FENGYUN 1C DEB", "group": "fengyun-1c-debris", "lat": -38.11000308447957, "lon": -84.22381440799545, "alt_km": 716.7090090554693, "timestamp": "2025-12-17T17:50:19.537578+00:00", "meta": {"OBJECT_NAME": "FENGYUN 1C DEB", "OBJECT_ID": "1999-025DDJ", "EPOCH": "2025-12-16T06:20:52.476000", "MEAN_MOTION": 14.61071741, "ECCENTRICITY": 0.02257554, "INCLINATION": 98.6207, "RA_OF_ASC_NODE": 101.0693, "ARG_OF_PERICENTER": 124.3766, "MEAN_ANOMALY": 237.9011, "EPHEMERIS_TYPE": 0, "CLASSIFICATION_TYPE": "U", "NORAD_CAT_ID": 33625, "ELEMENT_SET_NO": 999, "REV_AT_EPOCH": 61442, "BSTAR": 0.00094985611, "MEAN_MOTION_DOT": 6.652e-05, "MEAN_MOTION_DDOT": 0}, "tle": {"line1": "1 33625U 99025DDJ 25350.26449625  .00006652  00000+0  94986-3 0  9994", "line2": "2 33625  98.6207 101.0693 0225755 124.3766 237.9011 14.61071741614420"}}, "geometry": {"type": "Point", "coordinates": [-84.22381440799545, -38.11000308447957]}}, {"type": "Feature", "properties": {"norad_id": 33630, "name": "FENGYUN 1C DEB", "group": "fengyun-1c-debris", "lat": -50.6561384987103, "lon": 108.44724328345083, "alt_km": 864.1195595168738, "timestamp": "2025-12-17T17:50:19.537588+00:00", "meta": {"OBJECT_NAME": "FENGYUN 1C DEB", "OBJECT_ID": "1999-025DDP", "EPOCH": "2025-12-16T13:17:07.494144", "MEAN_MOTION": 14.17726795, "ECCENTRICITY": 0.01350341, "INCLINATION": 98.616, "RA_OF_ASC_NODE": 96.6346, "ARG_OF_PERICENTER": 57.1725, "MEAN_ANOMALY": 304.237, "EPHEMERIS_TYPE": 0, "CLASSIFICATION_TYPE": "U", "NORAD_CAT_ID": 33630, "ELEMENT_SET_NO": 999, "REV_AT_EPOCH": 64465, "BSTAR": 0.00032109765, "MEAN_MOTION_DOT": 6.74e-06, "MEAN_MOTION_DDOT": 0}, "tle": {"line1": "1 33630U 99025DDP 25350.55355896  .00000674  00000+0  32110-3 0  9997", "line2": "2 33630  98.6160  96.6346 0135034  57.1725 304.2370 14.17726795644657"}}, "geometry": {"type": "Point", "coordinates": [108.44724328345083, -50.6561384987103]}}, {"type": "Feature", "properties": {"norad_id": 33633, "name": "FENGYUN 1C DEB", "group": "fengyun-1c-debris", "lat": 19.892516880580345, "lon": 82.8157111556378, "alt_km": 853.7311726144517, "timestamp": "2025-12-17T17:50:19.537598+00:00", "meta": {"OBJECT_NAME": "FENGYUN 1C DEB", "OBJECT_ID": "1999-025DDS", "EPOCH": "2025-12-14T05:17:20.235840", "MEAN_MOTION": 14.19354186, "ECCENTRICITY": 0.00834952, "INCLINATION": 99.0564, "RA_OF_ASC_NODE": 82.5239, "ARG_OF_PERICENTER": 146.6641, "MEAN_ANOMALY": 243.3221, "EPHEMERIS_TYPE": 0, "CLASSIFICATION_TYPE": "U", "NORAD_CAT_ID": 33633, "ELEMENT_SET_NO": 999, "REV_AT_EPOCH": 90732, "BSTAR": 0.0025593474, "MEAN_MOTION_DOT": 5.525e-05, "MEAN_MOTION_DDOT": 0}, "tle": {"line1": "1 33633U 99025DDS 25348.22037310  .00005525  00000+0  25593-2 0  9995", "line2": "2 33633  99.0564  82.5239 0083495 146.6641 243.3221 14.19354186907329"}}, "geometry": {"type": "Point", "coordinates": [82.8157111556378, 19.892516880580345]}}, {"type": "Feature", "properties": {"norad_id": 33637, "name": "FENGYUN 1C DEB", "group": "fengyun-1c-debris", "lat": -35.584698164620534, "lon": -149.48168542713748, "alt_km": 763.8642257577112, "timestamp": "2025-12-17T17:50:19.537608+00:00", "meta": {"OBJECT_NAME": "FENGYUN 1C DEB", "OBJECT_ID": "1999-025DDW", "EPOCH": "2025-12-13T20:55:05.593728", "MEAN_MOTION": 14.36759768, "ECCENTRICITY": 0.00830796, "INCLINATION": 98.4929, "RA_OF_ASC_NODE": 32.8364, "ARG_OF_PERICENTER": 148.1698, "MEAN_ANOMALY": 212.4548, "EPHEMERIS_TYPE": 0, "CLASSIFICATION_TYPE": "U", "NORAD_CAT_ID": 33637, "ELEMENT_SET_NO": 999, "REV_AT_EPOCH": 64854, "BSTAR": 0.0014619922, "MEAN_MOTION_DOT": 4.446e-05, "MEAN_MOTION_DDOT": 0}, "tle": {"line1": "1 33637U 99025DDW 25347.87159252  .00004446  00000+0  14620-2 0  9999", "line2": "2 33637  98.4929  32.8364 0083079 148.1698 212.4548 14.36759768648544"}}, "geometry": {"type": "Point", "coordinates": [-149.48168542713748, -35.584698164620534]}}, {"type": "Feature", "properties": {"norad_id": 33638, "name": "FENGYUN 1C DEB", "group": "fengyun-1c-debris", "lat": -30.781428977299402, "lon": 56.74768954432625, "alt_km": 876.1186965925981, "timestamp": "2025-12-17T17:50:19.537619+00:00", "meta": {"OBJECT_NAME": "FENGYUN 1C DEB", "OBJECT_ID": "1999-025DDX", "EPOCH": "2025-12-16T10:58:25.363200", "MEAN_MOTION": 13.69321197, "ECCENTRICITY": 0.02644016, "INCLINATION": 98.4653, "RA_OF_ASC_NODE": 240.7052, "ARG_OF_PERICENTER": 263.1375, "MEAN_ANOMALY": 93.9631, "EPHEMERIS_TYPE": 0, "CLASSIFICATION_TYPE": "U", "NORAD_CAT_ID": 33638, "ELEMENT_SET_NO": 999, "REV_AT_EPOCH": 60966, "BSTAR": 0.00088523672, "MEAN_MOTION_DOT": 9.44e-06, "MEAN_MOTION_DDOT": 0}, "tle": {"line1": "1 33638U 99025DDX 25350.45723800  .00000944  00000+0  88524-3 0  9998", "line2": "2 33638  98.4653 240.7052 0264401 263.1375  93.9631 13.69321197609664"}}, "geometry": {"type": "Point", "coordinates": [56.74768954432625, -30.781428977299402]}}, {"type": "Feature", "properties": {"norad_id": 33639, "name": "FENGYUN 1C DEB", "group": "fengyun-1c-debris", "lat": -4.6893128176364955, "lon": 83.53217279505314, "alt_km": 754.9635031695598, "timestamp": "2025-12-17T17:50:19.537629+00:00", "meta": {"OBJECT_NAME": "FENGYUN 1C DEB", "OBJECT_ID": "1999-025DDY", "EPOCH": "2025-12-14T11:30:34.684704", "MEAN_MOTION": 14.40475035, "ECCENTRICITY": 0.00499213, "INCLINATION": 98.7123, "RA_OF_ASC_NODE": 79.4896, "ARG_OF_PERICENTER": 283.4225, "MEAN_ANOMALY": 76.1402, "EPHEMERIS_TYPE": 0, "CLASSIFICATION_TYPE": "U", "NORAD_CAT_ID": 33639, "ELEMENT_SET_NO": 999, "REV_AT_EPOCH": 60607, "BSTAR": 0.0023798225, "MEAN_MOTION_DOT": 7.641e-05, "MEAN_MOTION_DDOT": 0}, "tle": {"line1": "1 33639U 99025DDY 25348.47956811  .00007641  00000+0  23798-2 0  9990", "line2": "2 33639  98.7123  79.4896 0049921 283.4225  76.1402 14.40475035606072"}}, "geometry": {"type": "Point", "coordinates": [83.53217279505314, -4.6893128176364955]}}, {"type": "Feature", "properties": {"norad_id": 33640, "name": "FENGYUN 1C DEB", "group": "fengyun-1c-debris", "lat": -76.09114590284135, "lon": -26.35220511012562, "alt_km": 792.7050495594658, "timestamp": "2025-12-17T17:50:19.537639+00:00", "meta": {"OBJECT_NAME": "FENGYUN 1C DEB", "OBJECT_ID": "1999-025DDZ", "EPOCH": "2025-12-16T15:38:15.571104", "MEAN_MOTION": 14.45908505, "ECCENTRICITY": 0.00909711, "INCLINATION": 98.8411, "RA_OF_ASC_NODE": 293.5698, "ARG_OF_PERICENTER": 147.9721, "MEAN_ANOMALY": 212.7043, "EPHEMERIS_TYPE": 0, "CLASSIFICATION_TYPE": "U", "NORAD_CAT_ID": 33640, "ELEMENT_SET_NO": 999, "REV_AT_EPOCH": 92399, "BSTAR": 0.00035805044, "MEAN_MOTION_DOT": 1.289e-05, "MEAN_MOTION_DDOT": 0}, "tle": {"line1": "1 33640U 99025DDZ 25350.65156911  .00001289  00000+0  35805-3 0  9993", "line2": "2 33640  98.8411 293.5698 0090971 147.9721 212.7043 14.45908505923990"}}, "geometry": {"type": "Point", "coordinates": [-26.35220511012562, -76.09114590284135]}}, {"type": "Feature", "properties": {"norad_id": 33648, "name": "FENGYUN 1C DEB", "group": "fengyun-1c-debris", "lat": -46.6080992953819, "lon": -0.3665961019810713, "alt_km": 904.4046264987255, "timestamp": "2025-12-17T17:50:19.537649+00:00", "meta": {"OBJECT_NAME": "FENGYUN 1C DEB", "OBJECT_ID": "1999-025DEH", "EPOCH": "2025-12-17T06:09:31.970592", "MEAN_MOTION": 14.11777499, "ECCENTRICITY": 0.00691141, "INCLINATION": 98.7193, "RA_OF_ASC_NODE": 349.8183, "ARG_OF_PERICENTER": 161.3815, "MEAN_ANOMALY": 198.9909, "EPHEMERIS_TYPE": 0, "CLASSIFICATION_TYPE": "U", "NORAD_CAT_ID": 33648, "ELEMENT_SET_NO": 999, "REV_AT_EPOCH": 64440, "BSTAR": 9.2514074e-05, "MEAN_MOTION_DOT": 1.3e-06, "MEAN_MOTION_DDOT": 0}, "tle": {"line1": "1 33648U 99025DEH 25351.25662003  .00000130  00000+0  92514-4 0  9997", "line2": "2 33648  98.7193 349.8183 0069114 161.3815 198.9909 14.11777499644408"}}, "geometry": {"type": "Point", "coordinates": [-0.3665961019810713, -46.6080992953819]}}]}